COMMENT,ORIGINATOR,NORAD_CAT_ID,OBJECT_NAME,OBJECT_TYPE,CLASSIFICATION_TYPE,INTLDES,EPOCH,EPOCH_MICROSECONDS,MEAN_MOTION,ECCENTRICITY,INCLINATION,RA_OF_ASC_NODE,ARG_OF_PERICENTER,MEAN_ANOMALY,EPHEMERIS_TYPE,ELEMENT_SET_NO,REV_AT_EPOCH,BSTAR,MEAN_MOTION_DOT,MEAN_MOTION_DDOT,FILE,TLE_LINE0,TLE_LINE1,TLE_LINE2,OBJECT_ID,OBJECT_NUMBER,SEMIMAJOR_AXIS,PERIOD,APOGEE,PERIGEE,DECAYED
GENERATED VIA SPACETRACK.ORG API,18 SPCS,51976,STARLINK-3663,PAYLOAD,U,22025W,2024-07-04 13:11:32,703648,15.08835399,0.0001473,53.2178,271.4412,90.5564,269.5597,0,999,12961,0.00011387,1.525e-05,0.0,4360371,0 STARLINK-3663,1 51976U 22025W   24186.54968407  .00001525  00000-0  11387-3 0  9999,2 51976  53.2178 271.4412 0001473  90.5564 269.5597 15.08835399129614,2022-025W,51976,6917.894,95.438,540.778,538.74,0
GENERATED VIA SPACETRACK.ORG API,18 SPCS,51976,STARLINK-3663,PAYLOAD,U,22025W,2024-07-04 13:11:32,703648,15.08835399,0.0001473,53.2178,271.4412,90.5564,269.5597,0,999,12850,0.00011387,1.525e-05,0.0,4360440,0 STARLINK-3663,1 51976U 22025W   24186.54968407  .00001525  00000-0  11387-3 0  9999,2 51976  53.2178 271.4412 0001473  90.5564 269.5597 15.08835399128501,2022-025W,51976,6917.894,95.438,540.778,538.74,0
GENERATED VIA SPACETRACK.ORG API,18 SPCS,51976,STARLINK-3663,PAYLOAD,U,22025W,2024-07-04 22:43:51,339072,15.08840952,0.0001432,53.2178,269.6568,88.8724,271.2432,0,999,12856,5.6246e-05,6.07e-06,0.0,4361047,0 STARLINK-3663,1 51976U 22025W   24186.94712198  .00000607  00000-0  56246-4 0  9991,2 51976  53.2178 269.6568 0001432  88.8724 271.2432 15.08840952128560,2022-025W,51976,6917.877,95.437,540.733,538.752,0
GENERATED VIA SPACETRACK.ORG API,18 SPCS,51976,STARLINK-3663,PAYLOAD,U,22025W,2024-07-05 13:02:19,214016,15.08844924,0.0001395,53.2176,266.9801,88.2421,271.8731,0,999,12976,9.2945e-05,1.192e-05,0.0,4362226,0 STARLINK-3663,1 51976U 22025W   24187.54327794  .00001192  00000-0  92945-4 0  9998,2 51976  53.2176 266.9801 0001395  88.2421 271.8731 15.08844924129768,2022-025W,51976,6917.865,95.437,540.695,538.765,0
GENERATED VIA SPACETRACK.ORG API,18 SPCS,51976,STARLINK-3663,PAYLOAD,U,22025W,2024-07-05 13:02:19,214016,15.08844924,0.0001395,53.2176,266.9801,88.2421,271.8731,0,999,12865,9.2945e-05,1.192e-05,0.0,4362273,0 STARLINK-3663,1 51976U 22025W   24187.54327794  .00001192  00000-0  92945-4 0  9998,2 51976  53.2176 266.9801 0001395  88.2421 271.8731 15.08844924128655,2022-025W,51976,6917.865,95.437,540.695,538.765,0
GENERATED VIA SPACETRACK.ORG API,18 SPCS,51976,STARLINK-3663,PAYLOAD,U,22025W,2024-07-06 04:56:11,832,15.08838013,0.0001339,53.2168,264.0053,87.1773,272.9372,0,999,12986,4.1162e-05,3.67e-06,0.0,4363430,0 STARLINK-3663,1 51976U 22025W   24188.20568288  .00000367  00000-0  41162-4 0  9995,2 51976  53.2168 264.0053 0001339  87.1773 272.9372 15.08838013129869,2022-025W,51976,6917.886,95.438,540.678,538.825,0
GENERATED VIA SPACETRACK.ORG API,18 SPCS,51976,STARLINK-3663,PAYLOAD,U,22025W,2024-07-06 11:17:43,553472,15.08840152,0.0001411,53.2174,262.816,86.6025,273.5128,0,999,12879,2.3885e-05,9.2e-07,0.0,4364218,0 STARLINK-3663,1 51976U 22025W   24188.47064298  .00000092  00000-0  23885-4 0  9993,2 51976  53.2174 262.8160 0001411  86.6025 273.5128 15.08840152128790,2022-025W,51976,6917.88,95.438,540.721,538.769,0
GENERATED VIA SPACETRACK.ORG API,18 SPCS,51976,STARLINK-3663,PAYLOAD,U,22025W,2024-07-07 09:33:07,354656,15.08840868,0.0001461,53.2171,258.6529,86.4369,273.679,0,999,13004,1.3483e-05,-7.3e-07,0.0,4365818,0 STARLINK-3663,1 51976U 22025W   24189.39800179 -.00000073  00000-0  13483-4 0  9994,2 51976  53.2171 258.6529 0001461  86.4369 273.6790 15.08840868130044,2022-025W,51976,6917.878,95.437,540.753,538.732,0
GENERATED VIA SPACETRACK.ORG API,18 SPCS,51976,STARLINK-3663,PAYLOAD,U,22025W,2024-07-07 09:33:07,354656,15.08840868,0.0001461,53.2171,258.6529,86.4369,273.679,0,999,12893,1.3483e-05,-7.3e-07,0.0,4365919,0 STARLINK-3663,1 51976U 22025W   24189.39800179 -.00000073  00000-0  13483-4 0  9994,2 51976  53.2171 258.6529 0001461  86.4369 273.6790 15.08840868128939,2022-025W,51976,6917.878,95.437,540.753,538.732,0
GENERATED VIA SPACETRACK.ORG API,18 SPCS,51976,STARLINK-3663,PAYLOAD,U,22025W,2024-07-08 10:59:17,404512,15.08840348,0.0001469,53.2172,253.8945,89.5121,270.6039,0,999,13020,4.9417e-05,4.99e-06,0.0,4367619,0 STARLINK-3663,1 51976U 22025W   24190.45784033  .00000499  00000-0  49417-4 0  9990,2 51976  53.2172 253.8945 0001469  89.5121 270.6039 15.08840348130206,2022-025W,51976,6917.879,95.438,540.761,538.728,0
GENERATED VIA SPACETRACK.ORG API,18 SPCS,51976,STARLINK-3663,PAYLOAD,U,22025W,2024-07-08 10:59:17,404512,15.08840348,0.0001469,53.2172,253.8945,89.5121,270.6039,0,999,12909,4.9417e-05,4.99e-06,0.0,4367778,0 STARLINK-3663,1 51976U 22025W   24190.45784033  .00000499  00000-0  49417-4 0  9990,2 51976  53.2172 253.8945 0001469  89.5121 270.6039 15.08840348129091,2022-025W,51976,6917.879,95.438,540.761,538.728,0
GENERATED VIA SPACETRACK.ORG API,18 SPCS,51976,STARLINK-3663,PAYLOAD,U,22025W,2024-07-09 10:50:04,544736,15.08839363,0.0001443,53.2169,249.4342,89.7627,270.353,0,999,12924,4.259e-05,3.9e-06,0.0,4369589,0 STARLINK-3663,1 51976U 22025W   24191.45144149  .00000390  00000-0  42590-4 0  9994,2 51976  53.2169 249.4342 0001443  89.7627 270.3530 15.08839363129249,2022-025W,51976,6917.882,95.438,540.746,538.749,0
GENERATED VIA SPACETRACK.ORG API,18 SPCS,51976,STARLINK-3663,PAYLOAD,U,22025W,2024-07-10 02:43:56,425728,15.08834405,0.0001422,53.2169,246.4611,89.2199,270.8957,0,999,13045,-9.1641e-06,-4.34e-06,0.0,4370693,0 STARLINK-3663,1 51976U 22025W   24192.11384752 -.00000434  00000-0 -91641-5 0  9997,2 51976  53.2169 246.4611 0001422  89.2199 270.8957 15.08834405130456,2022-025W,51976,6917.897,95.438,540.746,538.779,0
GENERATED VIA SPACETRACK.ORG API,18 SPCS,51976,STARLINK-3663,PAYLOAD,U,22025W,2024-07-10 10:40:52,218048,15.08834141,0.0001403,53.217,244.9743,88.6292,271.4861,0,999,12939,-1.5083e-05,-5.28e-06,0.0,4371425,0 STARLINK-3663,1 51976U 22025W   24192.44504882 -.00000528  00000-0 -15083-4 0  9990,2 51976  53.2170 244.9743 0001403  88.6292 271.4861 15.08834141129392,2022-025W,51976,6917.898,95.438,540.734,538.793,0
GENERATED VIA SPACETRACK.ORG API,18 SPCS,51976,STARLINK-3663,PAYLOAD,U,22025W,2024-07-11 10:31:39,167328,15.08837593,0.0001359,53.2168,240.514,88.4122,271.7026,0,999,12954,2.9276e-05,1.78e-06,0.0,4372493,0 STARLINK-3663,1 51976U 22025W   24193.43864777  .00000178  00000-0  29276-4 0  9990,2 51976  53.2168 240.5140 0001359  88.4122 271.7026 15.08837593129549,2022-025W,51976,6917.888,95.438,540.693,538.813,0
GENERATED VIA SPACETRACK.ORG API,18 SPCS,51976,STARLINK-3663,PAYLOAD,U,22025W,2024-07-11 20:03:58,126752,15.08835501,0.000135,53.2167,238.7294,85.624,274.4906,0,999,13071,5.1733e-05,5.35e-06,0.0,4373232,0 STARLINK-3663,1 51976U 22025W   24193.83608943  .00000535  00000-0  51733-4 0  9995,2 51976  53.2167 238.7294 0001350  85.6240 274.4906 15.08835501130713,2022-025W,51976,6917.894,95.438,540.693,538.825,0
GENERATED VIA SPACETRACK.ORG API,18 SPCS,51976,STARLINK-3663,PAYLOAD,U,22025W,2024-07-11 20:03:58,126752,15.08835501,0.000135,53.2167,238.7294,85.624,274.4906,0,999,12960,5.1733e-05,5.35e-06,0.0,4373307,0 STARLINK-3663,1 51976U 22025W   24193.83608943  .00000535  00000-0  51733-4 0  9995,2 51976  53.2167 238.7294 0001350  85.6240 274.4906 15.08835501129609,2022-025W,51976,6917.894,95.438,540.693,538.825,0
GENERATED VIA SPACETRACK.ORG API,18 SPCS,51976,STARLINK-3663,PAYLOAD,U,22025W,2024-07-12 11:57:49,510944,15.08837509,0.0001338,53.2165,235.7558,89.2411,270.8734,0,999,12970,7.2576e-05,8.67e-06,0.0,4374714,0 STARLINK-3663,1 51976U 22025W   24194.49848971  .00000867  00000-0  72576-4 0  9991,2 51976  53.2165 235.7558 0001338  89.2411 270.8734 15.08837509129703,2022-025W,51976,6917.888,95.438,540.679,538.827,0
GENERATED VIA SPACETRACK.ORG API,18 SPCS,51976,STARLINK-3663,PAYLOAD,U,22025W,2024-07-12 19:54:45,365472,15.08836528,0.0001347,53.2165,234.269,88.0245,272.0902,0,999,12975,4.6356e-05,4.5e-06,0.0,4375345,0 STARLINK-3663,1 51976U 22025W   24194.82969173  .00000450  00000-0  46356-4 0  9991,2 51976  53.2165 234.2690 0001347  88.0245 272.0902 15.08836528129752,2022-025W,51976,6917.891,95.438,540.688,538.824,0
GENERATED VIA SPACETRACK.ORG API,18 SPCS,51976,STARLINK-3663,PAYLOAD,U,22025W,2024-07-13 02:16:17,457600,15.08843342,0.0001254,53.2177,233.0689,105.5768,254.5362,0,999,13090,3.9598e-05,3.42e-06,0.0,4375859,0 STARLINK-3663,1 51976U 22025W   24195.09464650  .00000342  00000-0  39598-4 0  9991,2 51976  53.2177 233.0689 0001254 105.5768 254.5362 15.08843342130908,2022-025W,51976,6917.87,95.437,540.603,538.868,0
GENERATED VIA SPACETRACK.ORG API,18 SPCS,51976,STARLINK-3663,PAYLOAD,U,22025W,2024-07-13 11:48:35,847648,15.08840288,0.0001346,53.216,231.295,91.9655,268.1491,0,999,12985,1.7594e-05,-8e-08,0.0,4376497,0 STARLINK-3663,1 51976U 22025W   24195.49208157 -.00000008  00000-0  17594-4 0  9995,2 51976  53.2160 231.2950 0001346  91.9655 268.1491 15.08840288129858,2022-025W,51976,6917.88,95.438,540.676,538.813,0
GENERATED VIA SPACETRACK.ORG API,18 SPCS,51976,STARLINK-3663,PAYLOAD,U,22025W,2024-07-13 19:45:31,620096,15.08838869,0.0001322,53.2159,229.8076,92.0448,268.0696,0,999,12990,1.847e-06,-2.59e-06,0.0,4377096,0 STARLINK-3663,1 51976U 22025W   24195.82328264 -.00000259  00000-0  18470-5 0  9997,2 51976  53.2159 229.8076 0001322  92.0448 268.0696 15.08838869129908,2022-025W,51976,6917.884,95.438,540.663,538.834,0
GENERATED VIA SPACETRACK.ORG API,18 SPCS,51976,STARLINK-3663,PAYLOAD,U,22025W,2024-07-14 11:39:22,577472,15.08843242,0.0001347,53.216,226.8341,90.6402,269.4744,0,999,13111,2.5836e-05,1.23e-06,0.0,4378341,0 STARLINK-3663,1 51976U 22025W   24196.48567798  .00000123  00000-0  25836-4 0  9999,2 51976  53.2160 226.8341 0001347  90.6402 269.4744 15.08843242131119,2022-025W,51976,6917.87,95.437,540.667,538.804,0
